2026-052G               
1 68204U 26052G   26087.86948994  .00008262  00000+0  50162-3 0  9999
2 68204  97.5378 163.9287 0009604 216.7759 143.2813 15.10725079  1924
KZ-11 R/B               
1 68205U 26052H   26087.83630832  .00029203  19441-5  43697-3 0  9994
2 68205  97.3417 163.1672 0546096 331.9667  25.3084 14.67232006  1863
2026-052J               
1 68206U 26052J   26087.83305873  .00079704  27971-5  11651-2 0  9991
2 68206  97.3418 163.1706 0543302 332.0174  25.2765 14.68040775  1861
STARLINK-36986          
1 68207U 26053A   26087.83335647  .00004481  00000+0  24128-4 0  9998
2 68207  97.2838 323.0178 0001450  92.5289 169.9965 15.80808782  3095
STARLINK-37009          
1 68208U 26053B   26087.83335647 -.00143379  00000+0 -75805-3 0  9998
2 68208  97.2838 323.0186 0001883  86.6222 180.1744 15.80873794  3091
STARLINK-36948          
1 68209U 26053C   26087.83335647  .00009587  00000+0  50765-4 0  9998
2 68209  97.2837 323.0215 0001920  96.9417 174.1407 15.80801308  2984
STARLINK-37119          
1 68210U 26053D   26087.83335647 -.00055377  00000+0 -29000-3 0  9997
2 68210  97.2840 323.0224 0001437 106.2682 169.0788 15.80830796  3093
STARLINK-37120          
1 68211U 26053E   26087.83335647 -.00111142  00000+0 -58527-3 0  9997
2 68211  97.2838 323.0239 0001424  93.5861 186.0223 15.80876450  3078
STARLINK-37117          
1 68212U 26053F   26087.83335647 -.00000423  00000+0 -14710-5 0  9995
2 68212  97.2839 323.0263 0001431  86.8228 197.0889 15.80805539  3099
STARLINK-37116          
1 68213U 26053G   26087.83335647 -.00103408  00000+0 -54418-3 0  9990
2 68213  97.2837 323.0278 0001596 104.4845 183.6737 15.80868935  3090
STARLINK-35854          
1 68214U 26053H   26087.83335647 -.00085582  00000+0 -44968-3 0  9992
2 68214  97.2836 323.0296 0001228 102.0581 190.3723 15.80853016  2850
STARLINK-36272          
1 68215U 26053J   26087.83335647 -.00149319  00000+0 -78947-3 0  9996
2 68215  97.2835 323.0311 0001430  91.2251 205.4770 15.80890626  2988
