CCSDS_OMM_VERS = 2.0
CREATION_DATE  = 
ORIGINATOR     = 

OBJECT_NAME    = 2026-052G
OBJECT_ID      = 2026-052G
CENTER_NAME    = EARTH
REF_FRAME      = TEME
TIME_SYSTEM    = UTC
MEAN_ELEMENT_THEORY = SGP/SGP4

EPOCH          = 2026-03-28T20:52:03.930816
MEAN_MOTION    = 15.10725079
ECCENTRICITY   = .0009604
INCLINATION    = 97.5378
RA_OF_ASC_NODE = 163.9287
ARG_OF_PERICENTER = 216.7759
MEAN_ANOMALY   = 143.2813

EPHEMERIS_TYPE = 0
CLASSIFICATION_TYPE = U
NORAD_CAT_ID   = 68204
ELEMENT_SET_NO = 999
REV_AT_EPOCH   = 192
BSTAR          = .50162E-3
MEAN_MOTION_DOT = .8262E-4
MEAN_MOTION_DDOT = 0

CCSDS_OMM_VERS = 2.0
CREATION_DATE  = 
ORIGINATOR     = 

OBJECT_NAME    = KZ-11 R/B
OBJECT_ID      = 2026-052H
CENTER_NAME    = EARTH
REF_FRAME      = TEME
TIME_SYSTEM    = UTC
MEAN_ELEMENT_THEORY = SGP/SGP4

EPOCH          = 2026-03-28T20:04:17.038848
MEAN_MOTION    = 14.67232006
ECCENTRICITY   = .0546096
INCLINATION    = 97.3417
RA_OF_ASC_NODE = 163.1672
ARG_OF_PERICENTER = 331.9667
MEAN_ANOMALY   = 25.3084

EPHEMERIS_TYPE = 0
CLASSIFICATION_TYPE = U
NORAD_CAT_ID   = 68205
ELEMENT_SET_NO = 999
REV_AT_EPOCH   = 186
BSTAR          = .43697E-3
MEAN_MOTION_DOT = .29203E-3
MEAN_MOTION_DDOT = .19441E-5

CCSDS_OMM_VERS = 2.0
CREATION_DATE  = 
ORIGINATOR     = 

OBJECT_NAME    = 2026-052J
OBJECT_ID      = 2026-052J
CENTER_NAME    = EARTH
REF_FRAME      = TEME
TIME_SYSTEM    = UTC
MEAN_ELEMENT_THEORY = SGP/SGP4

EPOCH          = 2026-03-28T19:59:36.274272
MEAN_MOTION    = 14.68040775
ECCENTRICITY   = .0543302
INCLINATION    = 97.3418
RA_OF_ASC_NODE = 163.1706
ARG_OF_PERICENTER = 332.0174
MEAN_ANOMALY   = 25.2765

EPHEMERIS_TYPE = 0
CLASSIFICATION_TYPE = U
NORAD_CAT_ID   = 68206
ELEMENT_SET_NO = 999
REV_AT_EPOCH   = 186
BSTAR          = .11651E-2
MEAN_MOTION_DOT = .79704E-3
MEAN_MOTION_DDOT = .27971E-5

CCSDS_OMM_VERS = 2.0
CREATION_DATE  = 
ORIGINATOR     = 

OBJECT_NAME    = STARLINK-36986
OBJECT_ID      = 2026-053A
CENTER_NAME    = EARTH
REF_FRAME      = TEME
TIME_SYSTEM    = UTC
MEAN_ELEMENT_THEORY = SGP/SGP4

EPOCH          = 2026-03-28T20:00:01.999008
MEAN_MOTION    = 15.80808782
ECCENTRICITY   = .000145
INCLINATION    = 97.2838
RA_OF_ASC_NODE = 323.0178
ARG_OF_PERICENTER = 92.5289
MEAN_ANOMALY   = 169.9965

EPHEMERIS_TYPE = 0
CLASSIFICATION_TYPE = U
NORAD_CAT_ID   = 68207
ELEMENT_SET_NO = 999
REV_AT_EPOCH   = 309
BSTAR          = .24128E-4
MEAN_MOTION_DOT = .4481E-4
MEAN_MOTION_DDOT = 0

CCSDS_OMM_VERS = 2.0
CREATION_DATE  = 
ORIGINATOR     = 

OBJECT_NAME    = STARLINK-37009
OBJECT_ID      = 2026-053B
CENTER_NAME    = EARTH
REF_FRAME      = TEME
TIME_SYSTEM    = UTC
MEAN_ELEMENT_THEORY = SGP/SGP4

EPOCH          = 2026-03-28T20:00:01.999008
MEAN_MOTION    = 15.80873794
ECCENTRICITY   = .0001883
INCLINATION    = 97.2838
RA_OF_ASC_NODE = 323.0186
ARG_OF_PERICENTER = 86.6222
MEAN_ANOMALY   = 180.1744

EPHEMERIS_TYPE = 0
CLASSIFICATION_TYPE = U
NORAD_CAT_ID   = 68208
ELEMENT_SET_NO = 999
REV_AT_EPOCH   = 309
BSTAR          = -.75805E-3
MEAN_MOTION_DOT = -.143379E-2
MEAN_MOTION_DDOT = 0

CCSDS_OMM_VERS = 2.0
CREATION_DATE  = 
ORIGINATOR     = 

OBJECT_NAME    = STARLINK-36948
OBJECT_ID      = 2026-053C
CENTER_NAME    = EARTH
REF_FRAME      = TEME
TIME_SYSTEM    = UTC
MEAN_ELEMENT_THEORY = SGP/SGP4

EPOCH          = 2026-03-28T20:00:01.999008
MEAN_MOTION    = 15.80801308
ECCENTRICITY   = .000192
INCLINATION    = 97.2837
RA_OF_ASC_NODE = 323.0215
ARG_OF_PERICENTER = 96.9417
MEAN_ANOMALY   = 174.1407

EPHEMERIS_TYPE = 0
CLASSIFICATION_TYPE = U
NORAD_CAT_ID   = 68209
ELEMENT_SET_NO = 999
REV_AT_EPOCH   = 298
BSTAR          = .50765E-4
MEAN_MOTION_DOT = .9587E-4
MEAN_MOTION_DDOT = 0

CCSDS_OMM_VERS = 2.0
CREATION_DATE  = 
ORIGINATOR     = 

OBJECT_NAME    = STARLINK-37119
OBJECT_ID      = 2026-053D
CENTER_NAME    = EARTH
REF_FRAME      = TEME
TIME_SYSTEM    = UTC
MEAN_ELEMENT_THEORY = SGP/SGP4

EPOCH          = 2026-03-28T20:00:01.999008
MEAN_MOTION    = 15.80830796
ECCENTRICITY   = .0001437
INCLINATION    = 97.2840
RA_OF_ASC_NODE = 323.0224
ARG_OF_PERICENTER = 106.2682
MEAN_ANOMALY   = 169.0788

EPHEMERIS_TYPE = 0
CLASSIFICATION_TYPE = U
NORAD_CAT_ID   = 68210
ELEMENT_SET_NO = 999
REV_AT_EPOCH   = 309
BSTAR          = -.29E-3
MEAN_MOTION_DOT = -.55377E-3
MEAN_MOTION_DDOT = 0

CCSDS_OMM_VERS = 2.0
CREATION_DATE  = 
ORIGINATOR     = 

OBJECT_NAME    = STARLINK-37120
OBJECT_ID      = 2026-053E
CENTER_NAME    = EARTH
REF_FRAME      = TEME
TIME_SYSTEM    = UTC
MEAN_ELEMENT_THEORY = SGP/SGP4

EPOCH          = 2026-03-28T20:00:01.999008
MEAN_MOTION    = 15.80876450
ECCENTRICITY   = .0001424
INCLINATION    = 97.2838
RA_OF_ASC_NODE = 323.0239
ARG_OF_PERICENTER = 93.5861
MEAN_ANOMALY   = 186.0223

EPHEMERIS_TYPE = 0
CLASSIFICATION_TYPE = U
NORAD_CAT_ID   = 68211
ELEMENT_SET_NO = 999
REV_AT_EPOCH   = 307
BSTAR          = -.58527E-3
MEAN_MOTION_DOT = -.111142E-2
MEAN_MOTION_DDOT = 0

CCSDS_OMM_VERS = 2.0
CREATION_DATE  = 
ORIGINATOR     = 

OBJECT_NAME    = STARLINK-37117
OBJECT_ID      = 2026-053F
CENTER_NAME    = EARTH
REF_FRAME      = TEME
TIME_SYSTEM    = UTC
MEAN_ELEMENT_THEORY = SGP/SGP4

EPOCH          = 2026-03-28T20:00:01.999008
MEAN_MOTION    = 15.80805539
ECCENTRICITY   = .0001431
INCLINATION    = 97.2839
RA_OF_ASC_NODE = 323.0263
ARG_OF_PERICENTER = 86.8228
MEAN_ANOMALY   = 197.0889

EPHEMERIS_TYPE = 0
CLASSIFICATION_TYPE = U
NORAD_CAT_ID   = 68212
ELEMENT_SET_NO = 999
REV_AT_EPOCH   = 309
BSTAR          = -.1471E-5
MEAN_MOTION_DOT = -.423E-5
MEAN_MOTION_DDOT = 0

CCSDS_OMM_VERS = 2.0
CREATION_DATE  = 
ORIGINATOR     = 

OBJECT_NAME    = STARLINK-37116
OBJECT_ID      = 2026-053G
CENTER_NAME    = EARTH
REF_FRAME      = TEME
TIME_SYSTEM    = UTC
MEAN_ELEMENT_THEORY = SGP/SGP4

EPOCH          = 2026-03-28T20:00:01.999008
MEAN_MOTION    = 15.80868935
ECCENTRICITY   = .0001596
INCLINATION    = 97.2837
RA_OF_ASC_NODE = 323.0278
ARG_OF_PERICENTER = 104.4845
MEAN_ANOMALY   = 183.6737

EPHEMERIS_TYPE = 0
CLASSIFICATION_TYPE = U
NORAD_CAT_ID   = 68213
ELEMENT_SET_NO = 999
REV_AT_EPOCH   = 309
BSTAR          = -.54418E-3
MEAN_MOTION_DOT = -.103408E-2
MEAN_MOTION_DDOT = 0

CCSDS_OMM_VERS = 2.0
CREATION_DATE  = 
ORIGINATOR     = 

OBJECT_NAME    = STARLINK-35854
OBJECT_ID      = 2026-053H
CENTER_NAME    = EARTH
REF_FRAME      = TEME
TIME_SYSTEM    = UTC
MEAN_ELEMENT_THEORY = SGP/SGP4

EPOCH          = 2026-03-28T20:00:01.999008
MEAN_MOTION    = 15.80853016
ECCENTRICITY   = .0001228
INCLINATION    = 97.2836
RA_OF_ASC_NODE = 323.0296
ARG_OF_PERICENTER = 102.0581
MEAN_ANOMALY   = 190.3723

EPHEMERIS_TYPE = 0
CLASSIFICATION_TYPE = U
NORAD_CAT_ID   = 68214
ELEMENT_SET_NO = 999
REV_AT_EPOCH   = 285
BSTAR          = -.44968E-3
MEAN_MOTION_DOT = -.85582E-3
MEAN_MOTION_DDOT = 0

CCSDS_OMM_VERS = 2.0
CREATION_DATE  = 
ORIGINATOR     = 

OBJECT_NAME    = STARLINK-36272
OBJECT_ID      = 2026-053J
CENTER_NAME    = EARTH
REF_FRAME      = TEME
TIME_SYSTEM    = UTC
MEAN_ELEMENT_THEORY = SGP/SGP4

EPOCH          = 2026-03-28T20:00:01.999008
MEAN_MOTION    = 15.80890626
ECCENTRICITY   = .000143
INCLINATION    = 97.2835
RA_OF_ASC_NODE = 323.0311
ARG_OF_PERICENTER = 91.2251
MEAN_ANOMALY   = 205.4770

EPHEMERIS_TYPE = 0
CLASSIFICATION_TYPE = U
NORAD_CAT_ID   = 68215
ELEMENT_SET_NO = 999
REV_AT_EPOCH   = 298
BSTAR          = -.78947E-3
MEAN_MOTION_DOT = -.149319E-2
MEAN_MOTION_DDOT = 0

